ONEWEB-0012             
1 44057U 19010A   25321.37364713  .00000000  00000+0 -34354-4 0  9991
2 44057  87.9005 270.9753 0001722  93.0488 267.0840 13.16593048323698
ONEWEB-0010             
1 44058U 19010B   25321.39898926  .00000398  00000+0  10087-2 0  9996
2 44058  87.9013 270.9579 0002266  79.0931 281.0454 13.16592618323740
ONEWEB-0008             
1 44059U 19010C   25321.42432291 -.00000008  00000+0 -54004-4 0  9999
2 44059  87.9016 270.9493 0001759  75.3832 284.7493 13.16594364323860
ONEWEB-0007             
1 44060U 19010D   25321.44329551 -.00000115  00000+0 -33981-3 0  9996
2 44060  87.8959 301.4809 0002120  94.5529 265.5843 13.15546738323538
ONEWEB-0006             
1 44061U 19010E   25321.44728830 -.00000071  00000+0 -22215-3 0  9999
2 44061  87.8967 301.4252 0002102  88.4315 271.7056 13.15550190323582
ONEWEB-0011             
1 44062U 19010F   25321.49164544  .00000089  00000+0  20169-3 0  9994
2 44062  87.8965 301.4262 0001925  80.6904 279.4443 13.15546747323580
ONEWEB-0013             
1 45131U 20008A   25321.43414645  .00000524  00000+0  14846-2 0  9993
2 45131  87.8495  95.5885 0001472 136.8240 223.3003 13.09441440278353
ONEWEB-0017             
1 45132U 20008B   25321.33673046  .00000254  00000+0  69002-3 0  9990
2 45132  87.8802  78.5052 0001779  97.0127 263.1203 13.10371827280209
ONEWEB-0020             
1 45133U 20008C   25321.38320728  .00000282  00000+0  77018-3 0  9999
2 45133  87.8811  78.4814 0001414  94.8566 265.2723 13.10377827280603
ONEWEB-0021             
1 45134U 20008D   25321.32180433  .00000623  00000+0  17484-2 0  9990
2 45134  87.8801  78.5247 0001672 103.8411 256.2902 13.10374838280901
ONEWEB-0023             
1 45136U 20008F   25321.40894612  .00000295  00000+0  81008-3 0  9991
2 45136  87.8793  78.4894 0001327 104.3997 255.7278 13.10371040280342
ONEWEB-0024             
1 45137U 20008G   25321.38155222  .00000190  00000+0  50736-3 0  9994
2 45137  87.8823  78.4591 0001624 100.0770 260.0541 13.10377538280501
ONEWEB-0025             
1 45138U 20008H   25321.39898898  .00000649  00000+0  18228-2 0  9997
2 45138  87.8809  78.4619 0001517 114.5174 245.6112 13.10373011280837
ONEWEB-0026             
1 45139U 20008J   25321.28243575  .00000657  00000+0  18182-2 0  9990
2 45139  87.8872  63.2616 0001713  97.5193 262.6130 13.11414551283339
ONEWEB-0028             
1 45140U 20008K   25321.31547752 -.00000581  00000+0 -16740-2 0  9996
2 45140  87.8864  63.2721 0001670 124.8525 235.2760 13.11415327280855
ONEWEB-0032             
1 45141U 20008L   25321.33838194 -.00000072  00000+0 -24205-3 0  9993
2 45141  87.8804  78.5052 0001553 111.0922 249.0372 13.10370401280556
ONEWEB-0033             
1 45142U 20008M   25321.38986213  .00002573  00000+0  73321-2 0  9993
2 45142  87.8808  78.5066 0001933  90.5733 269.5615 13.10364670280478
