[{"OBJECT_NAME":"ONEWEB-0012","OBJECT_ID":"2019-010A","EPOCH":"2025-11-17T08:58:03.112032","MEAN_MOTION":13.16593048,"ECCENTRICITY":0.0001722,"INCLINATION":87.9005,"RA_OF_ASC_NODE":270.9753,"ARG_OF_PERICENTER":93.0488,"MEAN_ANOMALY":267.084,"EPHEMERIS_TYPE":0,"CLASSIFICATION_TYPE":"U","NORAD_CAT_ID":44057,"ELEMENT_SET_NO":999,"REV_AT_EPOCH":32369,"BSTAR":-3.4354e-5,"MEAN_MOTION_DOT":0,"MEAN_MOTION_DDOT":0},{"OBJECT_NAME":"ONEWEB-0010","OBJECT_ID":"2019-010B","EPOCH":"2025-11-17T09:34:32.672064","MEAN_MOTION":13.16592618,"ECCENTRICITY":0.0002266,"INCLINATION":87.9013,"RA_OF_ASC_NODE":270.9579,"ARG_OF_PERICENTER":79.0931,"MEAN_ANOMALY":281.0454,"EPHEMERIS_TYPE":0,"CLASSIFICATION_TYPE":"U","NORAD_CAT_ID":44058,"ELEMENT_SET_NO":999,"REV_AT_EPOCH":32374,"BSTAR":0.0010087,"MEAN_MOTION_DOT":3.98e-6,"MEAN_MOTION_DDOT":0},{"OBJECT_NAME":"ONEWEB-0008","OBJECT_ID":"2019-010C","EPOCH":"2025-11-17T10:11:01.499424","MEAN_MOTION":13.16594364,"ECCENTRICITY":0.0001759,"INCLINATION":87.9016,"RA_OF_ASC_NODE":270.9493,"ARG_OF_PERICENTER":75.3832,"MEAN_ANOMALY":284.7493,"EPHEMERIS_TYPE":0,"CLASSIFICATION_TYPE":"U","NORAD_CAT_ID":44059,"ELEMENT_SET_NO":999,"REV_AT_EPOCH":32386,"BSTAR":-5.4004e-5,"MEAN_MOTION_DOT":-8.0e-8,"MEAN_MOTION_DDOT":0},{"OBJECT_NAME":"ONEWEB-0007","OBJECT_ID":"2019-010D","EPOCH":"2025-11-17T10:38:20.732064","MEAN_MOTION":13.15546738,"ECCENTRICITY":0.000212,"INCLINATION":87.8959,"RA_OF_ASC_NODE":301.4809,"ARG_OF_PERICENTER":94.5529,"MEAN_ANOMALY":265.5843,"EPHEMERIS_TYPE":0,"CLASSIFICATION_TYPE":"U","NORAD_CAT_ID":44060,"ELEMENT_SET_NO":999,"REV_AT_EPOCH":32353,"BSTAR":-0.00033981,"MEAN_MOTION_DOT":-1.15e-6,"MEAN_MOTION_DDOT":0},{"OBJECT_NAME":"ONEWEB-0006","OBJECT_ID":"2019-010E","EPOCH":"2025-11-17T10:44:05.709120","MEAN_MOTION":13.1555019,"ECCENTRICITY":0.0002102,"INCLINATION":87.8967,"RA_OF_ASC_NODE":301.4252,"ARG_OF_PERICENTER":88.4315,"MEAN_ANOMALY":271.7056,"EPHEMERIS_TYPE":0,"CLASSIFICATION_TYPE":"U","NORAD_CAT_ID":44061,"ELEMENT_SET_NO":999,"REV_AT_EPOCH":32358,"BSTAR":-0.00022215,"MEAN_MOTION_DOT":-7.1e-7,"MEAN_MOTION_DDOT":0},{"OBJECT_NAME":"ONEWEB-0011","OBJECT_ID":"2019-010F","EPOCH":"2025-11-17T11:47:58.166016","MEAN_MOTION":13.15546747,"ECCENTRICITY":0.0001925,"INCLINATION":87.8965,"RA_OF_ASC_NODE":301.4262,"ARG_OF_PERICENTER":80.6904,"MEAN_ANOMALY":279.4443,"EPHEMERIS_TYPE":0,"CLASSIFICATION_TYPE":"U","NORAD_CAT_ID":44062,"ELEMENT_SET_NO":999,"REV_AT_EPOCH":32358,"BSTAR":0.00020169,"MEAN_MOTION_DOT":8.9e-7,"MEAN_MOTION_DDOT":0},{"OBJECT_NAME":"ONEWEB-0013","OBJECT_ID":"2020-008A","EPOCH":"2025-11-17T10:25:10.253280","MEAN_MOTION":13.0944144,"ECCENTRICITY":0.0001472,"INCLINATION":87.8495,"RA_OF_ASC_NODE":95.5885,"ARG_OF_PERICENTER":136.824,"MEAN_ANOMALY":223.3003,"EPHEMERIS_TYPE":0,"CLASSIFICATION_TYPE":"U","NORAD_CAT_ID":45131,"ELEMENT_SET_NO":999,"REV_AT_EPOCH":27835,"BSTAR":0.0014846,"MEAN_MOTION_DOT":5.24e-6,"MEAN_MOTION_DDOT":0},{"OBJECT_NAME":"ONEWEB-0017","OBJECT_ID":"2020-008B","EPOCH":"2025-11-17T08:04:53.511744","MEAN_MOTION":13.10371827,"ECCENTRICITY":0.0001779,"INCLINATION":87.8802,"RA_OF_ASC_NODE":78.5052,"ARG_OF_PERICENTER":97.0127,"MEAN_ANOMALY":263.1203,"EPHEMERIS_TYPE":0,"CLASSIFICATION_TYPE":"U","NORAD_CAT_ID":45132,"ELEMENT_SET_NO":999,"REV_AT_EPOCH":28020,"BSTAR":0.00069002,"MEAN_MOTION_DOT":2.54e-6,"MEAN_MOTION_DDOT":0},{"OBJECT_NAME":"ONEWEB-0020","OBJECT_ID":"2020-008C","EPOCH":"2025-11-17T09:11:49.108992","MEAN_MOTION":13.10377827,"ECCENTRICITY":0.0001414,"INCLINATION":87.8811,"RA_OF_ASC_NODE":78.4814,"ARG_OF_PERICENTER":94.8566,"MEAN_ANOMALY":265.2723,"EPHEMERIS_TYPE":0,"CLASSIFICATION_TYPE":"U","NORAD_CAT_ID":45133,"ELEMENT_SET_NO":999,"REV_AT_EPOCH":28060,"BSTAR":0.00077018,"MEAN_MOTION_DOT":2.82e-6,"MEAN_MOTION_DDOT":0},{"OBJECT_NAME":"ONEWEB-0021","OBJECT_ID":"2020-008D","EPOCH":"2025-11-17T07:43:23.894112","MEAN_MOTION":13.10374838,"ECCENTRICITY":0.0001672,"INCLINATION":87.8801,"RA_OF_ASC_NODE":78.5247,"ARG_OF_PERICENTER":103.8411,"MEAN_ANOMALY":256.2902,"EPHEMERIS_TYPE":0,"CLASSIFICATION_TYPE":"U","NORAD_CAT_ID":45134,"ELEMENT_SET_NO":999,"REV_AT_EPOCH":28090,"BSTAR":0.0017484,"MEAN_MOTION_DOT":6.23e-6,"MEAN_MOTION_DDOT":0},{"OBJECT_NAME":"ONEWEB-0023","OBJECT_ID":"2020-008F","EPOCH":"2025-11-17T09:48:52.944768","MEAN_MOTION":13.1037104,"ECCENTRICITY":0.0001327,"INCLINATION":87.8793,"RA_OF_ASC_NODE":78.4894,"ARG_OF_PERICENTER":104.3997,"MEAN_ANOMALY":255.7278,"EPHEMERIS_TYPE":0,"CLASSIFICATION_TYPE":"U","NORAD_CAT_ID":45136,"ELEMENT_SET_NO":999,"REV_AT_EPOCH":28034,"BSTAR":0.00081008,"MEAN_MOTION_DOT":2.95e-6,"MEAN_MOTION_DDOT":0},{"OBJECT_NAME":"ONEWEB-0024","OBJECT_ID":"2020-008G","EPOCH":"2025-11-17T09:09:26.111808","MEAN_MOTION":13.10377538,"ECCENTRICITY":0.0001624,"INCLINATION":87.8823,"RA_OF_ASC_NODE":78.4591,"ARG_OF_PERICENTER":100.077,"MEAN_ANOMALY":260.0541,"EPHEMERIS_TYPE":0,"CLASSIFICATION_TYPE":"U","NORAD_CAT_ID":45137,"ELEMENT_SET_NO":999,"REV_AT_EPOCH":28050,"BSTAR":0.00050736,"MEAN_MOTION_DOT":1.9e-6,"MEAN_MOTION_DDOT":0},{"OBJECT_NAME":"ONEWEB-0025","OBJECT_ID":"2020-008H","EPOCH":"2025-11-17T09:34:32.647872","MEAN_MOTION":13.10373011,"ECCENTRICITY":0.0001517,"INCLINATION":87.8809,"RA_OF_ASC_NODE":78.4619,"ARG_OF_PERICENTER":114.5174,"MEAN_ANOMALY":245.6112,"EPHEMERIS_TYPE":0,"CLASSIFICATION_TYPE":"U","NORAD_CAT_ID":45138,"ELEMENT_SET_NO":999,"REV_AT_EPOCH":28083,"BSTAR":0.0018228,"MEAN_MOTION_DOT":6.49e-6,"MEAN_MOTION_DDOT":0},{"OBJECT_NAME":"ONEWEB-0026","OBJECT_ID":"2020-008J","EPOCH":"2025-11-17T06:46:42.448800","MEAN_MOTION":13.11414551,"ECCENTRICITY":0.00017132,"INCLINATION":87.8872,"RA_OF_ASC_NODE":63.2616,"ARG_OF_PERICENTER":97.5193,"MEAN_ANOMALY":262.613,"EPHEMERIS_TYPE":0,"CLASSIFICATION_TYPE":"U","NORAD_CAT_ID":45139,"ELEMENT_SET_NO":999,"REV_AT_EPOCH":28333,"BSTAR":0.0018182451,"MEAN_MOTION_DOT":6.57e-6,"MEAN_MOTION_DDOT":0},{"OBJECT_NAME":"ONEWEB-0028","OBJECT_ID":"2020-008K","EPOCH":"2025-11-17T07:34:17.257728","MEAN_MOTION":13.11415327,"ECCENTRICITY":0.000167,"INCLINATION":87.8864,"RA_OF_ASC_NODE":63.2721,"ARG_OF_PERICENTER":124.8525,"MEAN_ANOMALY":235.276,"EPHEMERIS_TYPE":0,"CLASSIFICATION_TYPE":"U","NORAD_CAT_ID":45140,"ELEMENT_SET_NO":999,"REV_AT_EPOCH":28085,"BSTAR":-0.001674,"MEAN_MOTION_DOT":-5.81e-6,"MEAN_MOTION_DDOT":0},{"OBJECT_NAME":"ONEWEB-0032","OBJECT_ID":"2020-008L","EPOCH":"2025-11-17T08:07:16.199616","MEAN_MOTION":13.10370401,"ECCENTRICITY":0.0001553,"INCLINATION":87.8804,"RA_OF_ASC_NODE":78.5052,"ARG_OF_PERICENTER":111.0922,"MEAN_ANOMALY":249.0372,"EPHEMERIS_TYPE":0,"CLASSIFICATION_TYPE":"U","NORAD_CAT_ID":45141,"ELEMENT_SET_NO":999,"REV_AT_EPOCH":28055,"BSTAR":-0.00024205,"MEAN_MOTION_DOT":-7.2e-7,"MEAN_MOTION_DDOT":0},{"OBJECT_NAME":"ONEWEB-0033","OBJECT_ID":"2020-008M","EPOCH":"2025-11-17T09:21:24.088032","MEAN_MOTION":13.1036467,"ECCENTRICITY":0.0001933,"INCLINATION":87.8808,"RA_OF_ASC_NODE":78.5066,"ARG_OF_PERICENTER":90.5733,"MEAN_ANOMALY":269.5615,"EPHEMERIS_TYPE":0,"CLASSIFICATION_TYPE":"U","NORAD_CAT_ID":45142,"ELEMENT_SET_NO":999,"REV_AT_EPOCH":28047,"BSTAR":0.0073321,"MEAN_MOTION_DOT":2.573e-5,"MEAN_MOTION_DDOT":0}]
